    CK13Y020  2014 06 13.1197  1.929687  0.991959  309.1255  243.2961   29.3947  20190228  12.0  4.0  C/2013 Y2 (PANSTARRS)                                    MPC_90768
    PK13Y46G  2017 01 29.7595  1.787001  0.454674  242.4065   48.9045    7.8583  20190228  10.0  4.0  P/2013 YG46 (Spacewatch)                                 MPC101095
    PK14A020  2013 10 24.0426  2.090944  0.647021  356.3534  106.6275   24.5502  20190228  15.0  4.0  P/2014 A2 (Hill)                                         MPC_89728
    PK14A030  2023 04 19.9651  3.517871  0.242971  212.0831  230.4458   13.6938  20190228  12.0  4.0  P/2014 A3 (PANSTARRS)                                    MPC_92981
    CK14A040  2015 09  4.8828  4.174965  0.999376  356.6526   29.7210  121.3684  20190228   6.0  4.0  C/2014 A4 (SONEAR)                                       MPC108592
    CK14A050  2014 08  9.2459  4.805785  0.943052  182.3972  310.0704   31.9702  20190228  10.0  4.0  C/2014 A5 (PANSTARRS)                                    MPC_93585
    CK14A52A  2015 02 27.4697  1.998914  1.000231  292.1520  330.3998  105.1532  20190228  10.0  4.0  C/2014 AA52 (Catalina)                                   MPC_96865
    CK14B010  2017 09 10.9856  9.557029  1.001722  345.8704  161.3952   28.3860  20190228   4.0  4.0  C/2014 B1 (Schwartz)                                     MPC111767
    PK14C010  2019 04 13.2695  1.684500  0.446422   24.1446  167.8489    2.6808  20190228  15.5  4.0  P/2014 C1 (TOTAS)                                        MPC102095
    CK14C020  2014 02 18.6133  0.514346  0.999273   56.2355  283.5476  135.7156  20190228  18.0  4.0  C/2014 C2 (STEREO)                                       MPC_88697
    CK14C030  2014 01 16.7072  1.870300  0.982902  346.1331  204.5488  151.7796  20190228  14.0  4.0  C/2014 C3 (NEOWISE)                                      MPC_90272
    PK14E010  2021 07 19.8441  2.139694  0.423824  185.9506   39.0583   15.9804  20190228  14.0  4.0  P/2014 E1 (Larson)                                       MPC_91614
    CK14E020  2014 07  1.8376  0.659685  0.998870  344.1347   56.6375  156.3006  20190228   7.1  4.4  C/2014 E2 (Jacques)                                      MPC102951
    CK14F010  2013 10  4.9028  3.509532  0.998955    8.3895  239.8304  108.2709  20190228  10.5  4.0  C/2014 F1 (Hill)                                         MPC_90769
    CK14F020  2015 01  3.4365  4.317220  0.971455   86.1578  267.4481  119.1097  20190228   9.5  4.0  C/2014 F2 (Tenagra)                                      MPC_97495
    CK14F030  2021 05  1.1236  5.721136  0.649500    1.2514  327.3459    6.4875  20190228   6.0  4.0  C/2014 F3 (Sheppard-Trujillo)                            MPC_94280
    CK14G010  2013 11  5.1183  5.488466  0.990536   77.2240  337.9532  165.6480  20190228   9.0  4.0  C/2014 G1 (PANSTARRS)                                    MPC_90272
    CK14G030  2015 02  2.8086  4.708042  0.912356  148.1582    4.7400  156.0787  20190228   9.0  4.0  C/2014 G3 (PANSTARRS)                                    MPC101095
    CK14H010  2014 04 15.2063  2.149834  0.984800  169.3752   34.6897   99.9221  20190228  14.5  4.0  C/2014 H1 (Christensen)                                  MPC_88697
    CK14HJ5U  2015 05 19.5731  5.127090  0.767700  145.2583  115.7564    5.8181  20190228  10.5  4.0  C/2014 HU195 (Valdes-TOTAS)                              MPC105541
    CK14J010  2014 06 20.5664  1.712064  0.804449  195.5428   41.9694  159.7057  20190228  17.0  4.0  C/2014 J1 (Catalina)                                     MPC109588
    PK14L020  2014 07 16.1107  2.224614  0.647192  182.6215  149.3697    5.1902  20190228  12.0  4.0  P/2014 L2 (NEOWISE)                                      MPC_93585
    PK14L030  2014 06 29.9723  1.845634  0.773779  178.5657  115.4866    6.2739  20190228  16.0  4.0  P/2014 L3 (Hill)                                         MPC_90769
    CK14L050  2014 11 23.9799  6.201687  0.999237   45.5173   35.7167  122.8160  20190228   8.0  4.0  C/2014 L5 (Lemmon)                                       MPC_95731
    CK14M010  2015 08 26.9802  5.590756  0.998705  337.0276  234.7535  160.2159  20190228   9.0  4.0  C/2014 M1 (PANSTARRS)                                    MPC103844
    CK14M020  2014 07 19.3786  6.912736  0.996500   40.8044  245.2577   32.4050  20190228   6.0  4.0  C/2014 M2 (Christensen)                                  MPC109141
    CK14M030  2014 06 19.7532  2.434021  0.980369   93.5986   80.3562  164.9008  20190228  14.0  4.0  C/2014 M3 (Catalina)                                     MPC_90769
    PK14M040  2014 12 25.1289  2.392053  0.593260  148.0394  263.2870    3.3344  20190228  15.0  4.0  P/2014 M4 (PANSTARRS)                                    MPC_91614
    PK14M04G  2024 09  4.0538  3.707525  0.260195  298.9563  311.7578    9.3677  20190228   9.5  4.0  P/2014 MG4 (Spacewatch-PANSTARRS)                        MPC103844
    CK14N020  2014 10  7.4196  2.194993  0.999214  238.0942  143.8836  132.9541  20190228  14.5  4.0  C/2014 N2 (PANSTARRS)                                    MPC_93586
    CK14N030  2015 03 12.5093  3.873836  0.997634  353.4148   19.8997   61.6468  20190228   7.0  4.0  C/2014 N3 (NEOWISE)                                      MPC103844
    PK14O030  2014 04 18.7797  4.635244  0.386317  204.3903   87.6392    7.8093  20190228  10.5  4.0  P/2014 O3 (PANSTARRS)                                    MPC_98560
    CK14O04E  2016 12 11.7347  6.245949  1.001468   65.8162  240.3888   81.3474  20190228  11.0  2.0  C/2014 OE4 (PANSTARRS)                                   MPC112389
    CK14Q010  2015 07  5.8559  0.317676  0.999702  120.0679    8.8746   43.0920  20190228   8.0  4.0  C/2014 Q1 (PANSTARRS)                                    MPC100578
    CK14Q020  2015 01 29.0275  1.292493  0.997170   12.3860   95.0389   80.2049  20190228   2.7 10.0  C/2014 Q2 (Lovejoy)                                      MPC111767
    CK14Q02U  2014 07  8.9801  2.218334  0.989856  320.2557  332.8938  124.8144  20190228  15.0  4.0  C/2014 QU2 (PANSTARRS)                                   MPC_90770
    CK14Q030  2014 11 17.3798  1.648878  0.940911   47.3302   63.1374   89.8672  20190228  -0.5 20.0  C/2014 Q3 (Borisov)                                      MPC102952
    CK14Q060  2015 01  6.2369  4.217354  0.998972    2.4885  326.5679   49.8030  20190228   9.5  4.0  C/2014 Q6 (PANSTARRS)                                    MPC_95732
    CK14R010  2014 11 18.3074  1.351762  0.992450   55.7827  104.0264    9.9111  20190228   6.5  8.8  C/2014 R1 (Borisov)                                      MPC_95211
    CK14R030  2016 08  8.6255  7.277327  0.998790  113.4647  334.0939   90.8701  20190228   6.5  4.0  C/2014 R3 (PANSTARRS)                                    MPC111767
    CK14R040  2014 10 19.9421  1.819917  0.997825  180.7537  279.5713   42.3759  20190228  13.0  4.0  C/2014 R4 (Gibbs)                                        MPC_92982
    PK14R050  2022 08 19.9542  2.383450  0.412738  213.6970  126.5431    1.0882  20190228  15.0  4.0  P/2014 R5 (Lemmon-PANSTARRS)                             MPC_91615
    CK14S010  2013 10 29.9061  8.127511  1.003192  288.7318  352.6542  123.7615  20190228   7.0  4.0  C/2014 S1 (PANSTARRS)                                    MPC_95732
    CK14S020  2015 12  9.3206  2.083670  0.988106   87.4037    8.0655   64.4231  20190228  10.0  4.0  C/2014 S2 (PANSTARRS)                                    MPC104790
    CK14S030  2014 08 12.7676  2.043113  0.976240  293.0735  356.1151  169.3275  20190228  17.0  4.0  C/2014 S3 (PANSTARRS)                                    MPC_90770
    CK14T64G  2014 05 26.2256  3.226366  0.781886  294.5447   50.2999   22.2946  20190228  13.0  4.0  C/2014 TG64 (Catalina)                                   MPC_91615
    PK14U020  2019 10 11.4115  1.116622  0.615417   37.6008  354.2502    7.2804  20190228  19.5  4.0  P/2014 U2 (Kowalski)                                     MPC_92274
    CK14U030  2014 09  4.3428  2.551888  0.997346   51.2705  163.5970  152.9421  20190228  14.5  4.0  C/2014 U3 (Kowalski)                                     MPC_91616
    PK14U040  2021 02 13.6799  1.869851  0.466018  347.8732   12.0262    6.4385  20190228  18.0  4.0  P/2014 U4 (PANSTARRS)                                    MPC_91616
    PK14V010  2015 01 20.6704  2.560796  0.533103  177.5525  166.2260   22.4871  20190228  14.0  4.0  P/2014 V1 (PANSTARRS)                                    MPC_95211
    PK14W010  2014 07 24.8973  2.721923  0.389318  152.4590  246.2409    8.8418  20190228  15.5  4.0  P/2014 W1 (PANSTARRS)                                    MPC_93586
    CK14W020  2016 03  9.4560  2.670559  0.996243   84.9522   69.9619   82.0276  20190228   7.5  4.0  C/2014 W2 (PANSTARRS)                                    MPC110493
    CK14W030  2014 02 26.9225  6.063764  1.005696  158.8981  286.4464   90.1584  20190228   8.5  4.0  C/2014 W3 (PANSTARRS)                                    MPC_98561
    PK14W040  2016 01  1.6948  4.275369  0.352834   68.0053   33.3481   15.2686  20190228  11.0  4.0  P/2014 W4 (PANSTARRS)                                    MPC105542
    CK14W060  2015 03 18.8873  3.094711  1.001595  209.9532  338.1757   53.5243  20190228  10.5  4.0  C/2014 W6 (Catalina)                                     MPC_95211
    CK14W070  2014 12 31.7728  1.488380  0.869480   33.2726  151.2722   98.1869  20190228  16.0  4.0  C/2014 W7 (Christensen)                                  MPC_92982
    CK14W080  2015 09  9.5904  5.023852  0.971359  228.0480  224.8472   41.9458  20190228  11.0  4.0  C/2014 W8 (PANSTARRS)                                    MPC_91616
    CK14W090  2015 02 15.2536  1.594843  0.857726  167.9012   21.3109   10.6247  20190228  16.0  4.0  C/2014 W9 (PANSTARRS)                                    MPC_94672
    CK14W110  2015 06 16.7157  3.427109  0.647612  225.6785  295.8206   12.7369  20190228  10.0  4.0  C/2014 W11 (PANSTARRS)                                   MPC107047
